QIANFAN-180             
1 69397U 26124R   26169.70696894  .00000069  00000+0  23946-4 0  9994
2 69397  88.9982   1.8594 0003130 158.5372 201.5952 14.23618296  2036
QIANFAN-181             
1 69398U 26124S   26169.45371203 -.01640636  00000+0 -97275+0 0  9995
2 69398  88.9978   1.8957 0008057 128.9943 231.1961 14.11518677  1995
QIANFAN-182             
1 69399U 26124T   26169.65614671  .00000053  00000+0  18498-4 0  9992
2 69399  88.9983   1.8703 0002467 135.2138 224.9251 14.18738267  2020
QIANFAN-183             
1 69401U 26125A   26168.69126813 -.01651562  00000+0 -97878+0 0  9990
2 69401  88.9947 280.3937 0019847 172.1127 188.0375 14.11485234  1779
QIANFAN-184             
1 69402U 26125B   26168.47547660 -.02055229  00000+0 -11737+1 0  9994
2 69402  88.9938 280.4151 0015306 171.0731 189.0731 14.13777102  1748
QIANFAN-185             
1 69403U 26125C   26168.68674677 -.01754819  00000+0 -10261+1 0  9998
2 69403  88.9947 280.3931 0020424 164.8771 195.3030 14.12461919  1775
QIANFAN-186             
1 69404U 26125D   26168.61160352 -.01824883  00000+0 -10433+1 0  9992
2 69404  88.9948 280.4005 0016679 160.6732 199.5090 14.13232659  1767
QIANFAN-187             
1 69405U 26125E   26168.60961634 -.01780805  00000+0 -10163+1 0  9999
2 69405  88.9946 280.4000 0017357 167.7699 192.3913 14.13878561  1768
QIANFAN-188             
1 69406U 26125F   26168.60670402 -.01737909  00000+0 -96810+0 0  9999
2 69406  88.9947 280.3997 0017342 181.3775 178.7367 14.15084907  1761
QIANFAN-189             
1 69407U 26125G   26168.67664827 -.01728094  00000+0 -97856+0 0  9997
2 69407  88.9947 280.3920 0016191 175.0592 185.0758 14.14182121  1778
QIANFAN-190             
1 69408U 26125H   26168.60499645 -.01740134  00000+0 -97667+0 0  9994
2 69408  88.9947 280.3997 0017185 173.7543 186.3862 14.14683866  1769
QIANFAN-191             
1 69409U 26125J   26168.67258568 -.01756346  00000+0 -97738+0 0  9990
2 69409  88.9947 280.3907 0016904 175.2815 184.8535 14.15188077  1774
QIANFAN-192             
1 69410U 26125K   26168.45921022 -.01776964  00000+0 -96379+0 0  9998
2 69410  88.9945 280.4149 0018296 185.8959 174.2016 14.16611060  1743
QIANFAN-193             
1 69411U 26125L   26168.59729616 -.01773691  00000+0 -94956+0 0  9992
2 69411  88.9947 280.3982 0012846 191.7547 168.3344 14.17349401  1762
QIANFAN-194             
1 69412U 26125M   26168.66655198 -.01819524  00000+0 -95613+0 0  9991
2 69412  88.9945 280.3900 0013592 197.0320 163.0414 14.17796679  1761
QIANFAN-195             
1 69413U 26125N   26168.66535198 -.01783982  00000+0 -93375+0 0  9990
2 69413  88.9946 280.3899 0013238 192.0047 168.0828 14.18583164  1777
QIANFAN-196             
1 69414U 26125P   26168.66418554 -.01766525  00000+0 -91902+0 0  9995
2 69414  88.9947 280.3893 0012349 192.1142 167.9753 14.18871868  1778
QIANFAN-197             
1 69415U 26125Q   26168.73413150 -.01839226  00000+0 -94391+0 0  9995
2 69415  88.9946 280.3814 0008556 187.5656 172.5406 14.19130968  1771
QIANFAN-198             
1 69416U 26125R   26168.59394481 -.01823161  00000+0 -95083+0 0  9995
2 69416  88.9946 280.3979 0016538 188.5541 171.5369 14.18185467  1766
QIANFAN-199             
1 69417U 26125S   26168.73311680 -.01690265  00000+0 -87205+0 0  9996
2 69417  88.9947 280.3814 0011007 176.3462 183.7810 14.19142098  1781
QIANFAN-200             
1 69418U 26125T   26168.67299879 -.01740558  00000+0 -96757+0 0  9998
2 69418  88.9947 280.3909 0016442 179.0490 181.0732 14.15211165  1777
STARLINK-37629          
1 69443U 26127A   26169.66671295 -.01539935  00000+0 -87202-2 0  9997
2 69443  53.1591 255.0971 0001152  62.9768  80.1237 15.81249047  2877
STARLINK-37509          
1 69444U 26127B   26169.66671295  .00009033  00000+0  49277-4 0  9998
2 69444  53.1588 255.0738 0001243  68.8685  85.4900 15.80865497  2876
STARLINK-37641          
1 69445U 26127C   26169.66671295  .00110638  00000+0  55829-3 0  9992
2 69445  53.1590 255.0568 0001371  51.0128 111.6262 15.80819634  2874
STARLINK-37522          
1 69446U 26127D   26169.66671295 -.01832261  00000+0 -10460-1 0  9999
2 69446  53.1588 255.0404 0001272  63.9280 106.6193 15.81109688  2871
STARLINK-37640          
1 69447U 26127E   26169.66671295 -.00011722  00000+0 -55921-4 0  9994
2 69447  53.1588 255.0239 0001091  74.6708 103.7592 15.80875705  2871
STARLINK-37572          
1 69448U 26127F   26169.66671295  .00112932  00000+0  56966-3 0  9997
2 69448  53.1588 254.9896 0001169  62.0179 132.9819 15.80818926  2876
STARLINK-37643          
1 69449U 26127G   26169.66671295 -.01885846  00000+0 -11534-1 0  9992
2 69449  53.1590 254.9777 0001207  62.6713 138.1364 15.79716750  2874
